start=new Date('2022-10-24T00:00:00.000Z').valueOf();
sats=[{"PERIOD":"95.592","ELEMENT_SET_NO":"999","REF_FRAME":"TEME","MEAN_ANOMALY":"302.0522","DECAY_DATE":null,"MEAN_MOTION_DOT":"0.00002126","TLE_LINE1":"1 48643U 21044F   22297.18532710  .00002126  00000-0  16163-3 0  9996","INCLINATION":"53.0538","EPOCH":"2022-10-24T04:26:52.261440","MEAN_MOTION_DDOT":"0.0000000000000","BSTAR":"0.00016163000000","PERIAPSIS":"545.999","LAUNCH_DATE":"2021-05-26","SITE":"AFETR","SEMIMAJOR_AXIS":"6925.363","MEAN_ELEMENT_THEORY":"SGP4","CENTER_NAME":"EARTH","TIME_SYSTEM":"UTC","ECCENTRICITY":"0.00017750","GP_ID":"215999129","NORAD_CAT_ID":"48643","ARG_OF_PERICENTER":"58.0640","RA_OF_ASC_NODE":"254.5443","TLE_LINE2":"2 48643  53.0538 254.5443 0001775  58.0640 302.0522 15.06395236 78842","OBJECT_TYPE":"PAYLOAD","CLASSIFICATION_TYPE":"U","APOAPSIS":"548.457","COUNTRY_CODE":"US","RCS_SIZE":"LARGE","REV_AT_EPOCH":"7884","FILE":"3630636","OBJECT_NAME":"STARLINK-2704","MEAN_MOTION":"15.06395236","OBJECT_ID":"2021-044F","EPHEMERIS_TYPE":"0"},{"MEAN_MOTION_DDOT":"0.0000000000000","INCLINATION":"53.0549","EPOCH":"2022-10-24T04:22:55.541856","REF_FRAME":"TEME","MEAN_MOTION_DOT":"0.00001047","TLE_LINE1":"1 48644U 21044G   22297.18258729  .00001047  00000-0  89182-4 0  9995","MEAN_ANOMALY":"308.2381","DECAY_DATE":null,"ELEMENT_SET_NO":"999","PERIOD":"95.593","MEAN_ELEMENT_THEORY":"SGP4","CENTER_NAME":"EARTH","LAUNCH_DATE":"2021-05-26","PERIAPSIS":"545.934","SITE":"AFETR","SEMIMAJOR_AXIS":"6925.369","BSTAR":"0.00008918200000","CLASSIFICATION_TYPE":"U","TLE_LINE2":"2 48644  53.0549 254.5662 0001878  51.8777 308.2381 15.06393288 78783","OBJECT_TYPE":"PAYLOAD","APOAPSIS":"548.535","ARG_OF_PERICENTER":"51.8777","RA_OF_ASC_NODE":"254.5662","NORAD_CAT_ID":"48644","GP_ID":"215999281","TIME_SYSTEM":"UTC","ECCENTRICITY":"0.00018780","OBJECT_ID":"2021-044G","MEAN_MOTION":"15.06393288","EPHEMERIS_TYPE":"0","OBJECT_NAME":"STARLINK-2695","FILE":"3630637","RCS_SIZE":"LARGE","REV_AT_EPOCH":"7878","COUNTRY_CODE":"US"},{"NORAD_CAT_ID":"48645","RA_OF_ASC_NODE":"254.5904","ARG_OF_PERICENTER":"55.4780","OBJECT_TYPE":"PAYLOAD","TLE_LINE2":"2 48645  53.0547 254.5904 0001929  55.4780 304.6391 15.06405015 78842","CLASSIFICATION_TYPE":"U","APOAPSIS":"548.534","TIME_SYSTEM":"UTC","ECCENTRICITY":"0.00019290","GP_ID":"215999302","OBJECT_NAME":"STARLINK-2733","MEAN_MOTION":"15.06405015","OBJECT_ID":"2021-044H","EPHEMERIS_TYPE":"0","COUNTRY_CODE":"US","REV_AT_EPOCH":"7884","RCS_SIZE":"LARGE","FILE":"3630638","INCLINATION":"53.0547","EPOCH":"2022-10-24T04:17:36.772512","MEAN_MOTION_DDOT":"0.0000000000000","PERIOD":"95.592","ELEMENT_SET_NO":"999","REF_FRAME":"TEME","MEAN_ANOMALY":"304.6391","DECAY_DATE":null,"MEAN_MOTION_DOT":"0.00001462","TLE_LINE1":"1 48645U 21044H   22297.17889783  .00001462  00000-0  11701-3 0  9997","MEAN_ELEMENT_THEORY":"SGP4","CENTER_NAME":"EARTH","BSTAR":"0.00011701000000","PERIAPSIS":"545.862","LAUNCH_DATE":"2021-05-26","SITE":"AFETR","SEMIMAJOR_AXIS":"6925.333"},{"COUNTRY_CODE":"US","FILE":"3630365","REV_AT_EPOCH":"7782","RCS_SIZE":"LARGE","OBJECT_NAME":"STARLINK-2732","EPHEMERIS_TYPE":"0","OBJECT_ID":"2021-044J","MEAN_MOTION":"15.06405574","ECCENTRICITY":"0.00018260","TIME_SYSTEM":"UTC","GP_ID":"215962128","ARG_OF_PERICENTER":"61.3523","RA_OF_ASC_NODE":"258.1738","NORAD_CAT_ID":"48646","APOAPSIS":"548.461","TLE_LINE2":"2 48646  53.0554 258.1738 0001826  61.3523 298.7649 15.06405574 77829","OBJECT_TYPE":"PAYLOAD","CLASSIFICATION_TYPE":"U","BSTAR":"0.00017655000000","SITE":"AFETR","SEMIMAJOR_AXIS":"6925.331","LAUNCH_DATE":"2021-05-26","PERIAPSIS":"545.932","CENTER_NAME":"EARTH","MEAN_ELEMENT_THEORY":"SGP4","ELEMENT_SET_NO":"999","PERIOD":"95.592","TLE_LINE1":"1 48646U 21044J   22296.37905586  .00002349  00000-0  17655-3 0  9998","MEAN_MOTION_DOT":"0.00002349","MEAN_ANOMALY":"298.7649","DECAY_DATE":null,"REF_FRAME":"TEME","EPOCH":"2022-10-23T09:05:50.426304","INCLINATION":"53.0554","MEAN_MOTION_DDOT":"0.0000000000000"},{"OBJECT_NAME":"STARLINK-2691","MEAN_MOTION":"15.06392152","OBJECT_ID":"2021-044K","EPHEMERIS_TYPE":"0","COUNTRY_CODE":"US","REV_AT_EPOCH":"7781","RCS_SIZE":"LARGE","FILE":"3630365","NORAD_CAT_ID":"48647","ARG_OF_PERICENTER":"63.7642","RA_OF_ASC_NODE":"258.4874","TLE_LINE2":"2 48647  53.0552 258.4874 0001596  63.7642 296.3511 15.06392152 77812","CLASSIFICATION_TYPE":"U","OBJECT_TYPE":"PAYLOAD","APOAPSIS":"548.343","TIME_SYSTEM":"UTC","ECCENTRICITY":"0.00015960","GP_ID":"215962378","MEAN_ELEMENT_THEORY":"SGP4","CENTER_NAME":"EARTH","BSTAR":"0.00003660200000","PERIAPSIS":"546.132","LAUNCH_DATE":"2021-05-26","SEMIMAJOR_AXIS":"6925.373","SITE":"AFETR","INCLINATION":"53.0552","EPOCH":"2022-10-23T07:25:00.523776","MEAN_MOTION_DDOT":"0.0000000000000","PERIOD":"95.593","ELEMENT_SET_NO":"999","REF_FRAME":"TEME","MEAN_ANOMALY":"296.3511","DECAY_DATE":null,"TLE_LINE1":"1 48647U 21044K   22296.30903384  .00000264  00000-0  36602-4 0  9994","MEAN_MOTION_DOT":"0.00000264"},{"NORAD_CAT_ID":"48648","ARG_OF_PERICENTER":"59.2675","RA_OF_ASC_NODE":"257.3925","OBJECT_TYPE":"PAYLOAD","TLE_LINE2":"2 48648  53.0561 257.3925 0001912  59.2675 300.8502 15.06402974 77855","CLASSIFICATION_TYPE":"U","APOAPSIS":"548.529","ECCENTRICITY":"0.00019120","TIME_SYSTEM":"UTC","GP_ID":"215993640","OBJECT_NAME":"STARLINK-2521","MEAN_MOTION":"15.06402974","OBJECT_ID":"2021-044L","EPHEMERIS_TYPE":"0","COUNTRY_CODE":"US","RCS_SIZE":"LARGE","REV_AT_EPOCH":"7785","FILE":"3630604","INCLINATION":"53.0561","EPOCH":"2022-10-23T14:08:24.765792","MEAN_MOTION_DDOT":"0.0000000000000","PERIOD":"95.592","ELEMENT_SET_NO":"999","REF_FRAME":"TEME","DECAY_DATE":null,"MEAN_ANOMALY":"300.8502","TLE_LINE1":"1 48648U 21044L   22296.58917553  .00000514  00000-0  53424-4 0  9997","MEAN_MOTION_DOT":"0.00000514","MEAN_ELEMENT_THEORY":"SGP4","CENTER_NAME":"EARTH","BSTAR":"0.00005342400000","PERIAPSIS":"545.880","LAUNCH_DATE":"2021-05-26","SITE":"AFETR","SEMIMAJOR_AXIS":"6925.339"},{"OBJECT_NAME":"STARLINK-2673","EPHEMERIS_TYPE":"0","OBJECT_ID":"2021-044M","MEAN_MOTION":"15.06401356","COUNTRY_CODE":"US","FILE":"3630365","RCS_SIZE":"LARGE","REV_AT_EPOCH":"7780","ARG_OF_PERICENTER":"54.1030","RA_OF_ASC_NODE":"258.5024","NORAD_CAT_ID":"48649","APOAPSIS":"548.500","OBJECT_TYPE":"PAYLOAD","TLE_LINE2":"2 48649  53.0542 258.5024 0001863  54.1030 306.0131 15.06401356 77806","CLASSIFICATION_TYPE":"U","TIME_SYSTEM":"UTC","ECCENTRICITY":"0.00018630","GP_ID":"215963380","CENTER_NAME":"EARTH","MEAN_ELEMENT_THEORY":"SGP4","BSTAR":"0.00010758000000","SEMIMAJOR_AXIS":"6925.344","SITE":"AFETR","LAUNCH_DATE":"2021-05-26","PERIAPSIS":"545.919","EPOCH":"2022-10-23T07:19:41.327616","INCLINATION":"53.0542","MEAN_MOTION_DDOT":"0.0000000000000","ELEMENT_SET_NO":"999","PERIOD":"95.592","MEAN_MOTION_DOT":"0.00001321","TLE_LINE1":"1 48649U 21044M   22296.30533944  .00001321  00000-0  10758-3 0  9995","MEAN_ANOMALY":"306.0131","DECAY_DATE":null,"REF_FRAME":"TEME"},{"CENTER_NAME":"EARTH","MEAN_ELEMENT_THEORY":"SGP4","SITE":"AFETR","SEMIMAJOR_AXIS":"6925.318","LAUNCH_DATE":"2021-05-26","PERIAPSIS":"546.003","BSTAR":"0.00016490000000","MEAN_MOTION_DDOT":"0.0000000000000","EPOCH":"2022-10-23T16:47:36.435264","INCLINATION":"53.0523","TLE_LINE1":"1 48650U 21044N   22296.69972726  .00002176  00000-0  16490-3 0  9992","MEAN_MOTION_DOT":"0.00002176","MEAN_ANOMALY":"305.4608","DECAY_DATE":null,"REF_FRAME":"TEME","ELEMENT_SET_NO":"999","PERIOD":"95.592","EPHEMERIS_TYPE":"0","OBJECT_ID":"2021-044N","MEAN_MOTION":"15.06410020","OBJECT_NAME":"STARLINK-2672","FILE":"3630604","REV_AT_EPOCH":"7786","RCS_SIZE":"MEDIUM","COUNTRY_CODE":"US","APOAPSIS":"548.363","TLE_LINE2":"2 48650  53.0523 256.7349 0001704  54.6541 305.4608 15.06410020 77869","CLASSIFICATION_TYPE":"U","OBJECT_TYPE":"PAYLOAD","RA_OF_ASC_NODE":"256.7349","ARG_OF_PERICENTER":"54.6541","NORAD_CAT_ID":"48650","GP_ID":"215995143","ECCENTRICITY":"0.00017040","TIME_SYSTEM":"UTC"},{"APOAPSIS":"548.610","TLE_LINE2":"2 48651  53.0545 257.0448 0002060  52.9319 307.1858 15.06409743 77853","OBJECT_TYPE":"PAYLOAD","CLASSIFICATION_TYPE":"U","NORAD_CAT_ID":"48651","RA_OF_ASC_NODE":"257.0448","ARG_OF_PERICENTER":"52.9319","GP_ID":"215993891","ECCENTRICITY":"0.00020600","TIME_SYSTEM":"UTC","EPHEMERIS_TYPE":"0","MEAN_MOTION":"15.06409743","OBJECT_ID":"2021-044P","OBJECT_NAME":"STARLINK-2731","REV_AT_EPOCH":"7785","RCS_SIZE":"LARGE","FILE":"3630604","COUNTRY_CODE":"US","MEAN_MOTION_DDOT":"0.0000000000000","EPOCH":"2022-10-23T15:06:45.330048","INCLINATION":"53.0545","DECAY_DATE":null,"MEAN_ANOMALY":"307.1858","MEAN_MOTION_DOT":"0.00001219","TLE_LINE1":"1 48651U 21044P   22296.62969132  .00001219  00000-0  10070-3 0  9998","REF_FRAME":"TEME","PERIOD":"95.592","ELEMENT_SET_NO":"999","CENTER_NAME":"EARTH","MEAN_ELEMENT_THEORY":"SGP4","SEMIMAJOR_AXIS":"6925.319","SITE":"AFETR","PERIAPSIS":"545.757","LAUNCH_DATE":"2021-05-26","BSTAR":"0.00010070000000"},{"GP_ID":"215963130","TIME_SYSTEM":"UTC","ECCENTRICITY":"0.00018740","CLASSIFICATION_TYPE":"U","TLE_LINE2":"2 48652  53.0517 258.2601 0001874  53.6371 306.4791 15.06405756 77819","OBJECT_TYPE":"PAYLOAD","APOAPSIS":"548.494","NORAD_CAT_ID":"48652","ARG_OF_PERICENTER":"53.6371","RA_OF_ASC_NODE":"258.2601","REV_AT_EPOCH":"7781","RCS_SIZE":"LARGE","FILE":"3630365","COUNTRY_CODE":"US","MEAN_MOTION":"15.06405756","OBJECT_ID":"2021-044Q","EPHEMERIS_TYPE":"0","OBJECT_NAME":"STARLINK-2727","REF_FRAME":"TEME","MEAN_ANOMALY":"306.4791","DECAY_DATE":null,"TLE_LINE1":"1 48652U 21044Q   22296.36062993  .00005143  00000-0  36383-3 0  9994","MEAN_MOTION_DOT":"0.00005143","PERIOD":"95.592","ELEMENT_SET_NO":"999","MEAN_MOTION_DDOT":"0.0000000000000","INCLINATION":"53.0517","EPOCH":"2022-10-23T08:39:18.425952","PERIAPSIS":"545.898","LAUNCH_DATE":"2021-05-26","SEMIMAJOR_AXIS":"6925.331","SITE":"AFETR","BSTAR":"0.00036383000000","MEAN_ELEMENT_THEORY":"SGP4","CENTER_NAME":"EARTH"}];
